{"fetched_at":"2026-07-10T18:07:52.116Z","source":"https://celestrak.org/NORAD/elements/gp.php?GROUP=oneweb&FORMAT=JSON","constellation":"oneweb","records":[{"OBJECT_NAME":"ONEWEB-0018","OBJECT_ID":"2020-020L","EPOCH":"2026-07-09T11:54:51.247008","CLASSIFICATION_TYPE":"U","MEAN_MOTION":13.1141754,"ECCENTRICITY":0.00015453,"INCLINATION":87.8881,"RA_OF_ASC_NODE":16.6239,"ARG_OF_PERICENTER":98.6033,"MEAN_ANOMALY":261.527,"EPHEMERIS_TYPE":0,"NORAD_CAT_ID":45434,"ELEMENT_SET_NO":999,"REV_AT_EPOCH":30555,"BSTAR":0.0010291424,"MEAN_MOTION_DOT":0.00000377,"MEAN_MOTION_DDOT":0},{"OBJECT_NAME":"ONEWEB-0083","OBJECT_ID":"2020-020M","EPOCH":"2026-07-09T11:40:36.331104","CLASSIFICATION_TYPE":"U","MEAN_MOTION":13.11418856,"ECCENTRICITY":0.00018496,"INCLINATION":87.8888,"RA_OF_ASC_NODE":16.6206,"ARG_OF_PERICENTER":91.8186,"MEAN_ANOMALY":268.3154,"EPHEMERIS_TYPE":0,"NORAD_CAT_ID":45435,"ELEMENT_SET_NO":999,"REV_AT_EPOCH":30559,"BSTAR":-0.00010819232,"MEAN_MOTION_DOT":-2.6e-7,"MEAN_MOTION_DDOT":0},{"OBJECT_NAME":"ONEWEB-0095","OBJECT_ID":"2020-020N","EPOCH":"2026-07-09T11:28:23.090592","CLASSIFICATION_TYPE":"U","MEAN_MOTION":13.11417493,"ECCENTRICITY":0.00024488,"INCLINATION":87.8887,"RA_OF_ASC_NODE":16.631,"ARG_OF_PERICENTER":79.9808,"MEAN_ANOMALY":280.1596,"EPHEMERIS_TYPE":0,"NORAD_CAT_ID":45436,"ELEMENT_SET_NO":999,"REV_AT_EPOCH":30559,"BSTAR":-0.00093630406,"MEAN_MOTION_DOT":-0.00000319,"MEAN_MOTION_DDOT":0},{"OBJECT_NAME":"ONEWEB-0092","OBJECT_ID":"2020-020P","EPOCH":"2026-07-10T06:31:01.489728","CLASSIFICATION_TYPE":"U","MEAN_MOTION":13.11414455,"ECCENTRICITY":0.00016815,"INCLINATION":87.8885,"RA_OF_ASC_NODE":16.4643,"ARG_OF_PERICENTER":94.2237,"MEAN_ANOMALY":265.9083,"EPHEMERIS_TYPE":0,"NORAD_CAT_ID":45437,"ELEMENT_SET_NO":999,"REV_AT_EPOCH":30581,"BSTAR":0.0014545895,"MEAN_MOTION_DOT":0.00000528,"MEAN_MOTION_DDOT":0},{"OBJECT_NAME":"ONEWEB-0085","OBJECT_ID":"2020-020Q","EPOCH":"2026-07-09T11:40:12.438048","CLASSIFICATION_TYPE":"U","MEAN_MOTION":13.11418366,"ECCENTRICITY":0.0001849,"INCLINATION":87.888,"RA_OF_ASC_NODE":16.6262,"ARG_OF_PERICENTER":89.6746,"MEAN_ANOMALY":270.4594,"EPHEMERIS_TYPE":0,"NORAD_CAT_ID":45438,"ELEMENT_SET_NO":999,"REV_AT_EPOCH":30559,"BSTAR":-0.0001397658,"MEAN_MOTION_DOT":-3.7e-7,"MEAN_MOTION_DDOT":0},{"OBJECT_NAME":"ONEWEB-0096","OBJECT_ID":"2020-020R","EPOCH":"2026-07-09T11:42:50.472288","CLASSIFICATION_TYPE":"U","MEAN_MOTION":13.11418171,"ECCENTRICITY":0.0001971,"INCLINATION":87.8888,"RA_OF_ASC_NODE":16.6228,"ARG_OF_PERICENTER":88.3212,"MEAN_ANOMALY":271.8141,"EPHEMERIS_TYPE":0,"NORAD_CAT_ID":45439,"ELEMENT_SET_NO":999,"REV_AT_EPOCH":30558,"BSTAR":0.000074646732,"MEAN_MOTION_DOT":3.9e-7,"MEAN_MOTION_DDOT":0},{"OBJECT_NAME":"ONEWEB-0037","OBJECT_ID":"2020-020S","EPOCH":"2026-07-10T06:39:20.753856","CLASSIFICATION_TYPE":"U","MEAN_MOTION":13.11423434,"ECCENTRICITY":0.00018989,"INCLINATION":87.8897,"RA_OF_ASC_NODE":16.4385,"ARG_OF_PERICENTER":88.9347,"MEAN_ANOMALY":271.1998,"EPHEMERIS_TYPE":0,"NORAD_CAT_ID":45440,"ELEMENT_SET_NO":999,"REV_AT_EPOCH":30572,"BSTAR":-0.0019204998,"MEAN_MOTION_DOT":-0.00000668,"MEAN_MOTION_DDOT":0},{"OBJECT_NAME":"ONEWEB-0042","OBJECT_ID":"2020-020T","EPOCH":"2026-07-09T11:27:59.800608","CLASSIFICATION_TYPE":"U","MEAN_MOTION":13.11417617,"ECCENTRICITY":0.00017582,"INCLINATION":87.8883,"RA_OF_ASC_NODE":16.6216,"ARG_OF_PERICENTER":87.0975,"MEAN_ANOMALY":273.0354,"EPHEMERIS_TYPE":0,"NORAD_CAT_ID":45441,"ELEMENT_SET_NO":999,"REV_AT_EPOCH":30558,"BSTAR":-0.0010996766,"MEAN_MOTION_DOT":-0.00000377,"MEAN_MOTION_DDOT":0},{"OBJECT_NAME":"ONEWEB-0098","OBJECT_ID":"2020-020U","EPOCH":"2026-07-09T11:22:04.159200","CLASSIFICATION_TYPE":"U","MEAN_MOTION":13.11415694,"ECCENTRICITY":0.00018453,"INCLINATION":87.8882,"RA_OF_ASC_NODE":16.6311,"ARG_OF_PERICENTER":91.8801,"MEAN_ANOMALY":268.2539,"EPHEMERIS_TYPE":0,"NORAD_CAT_ID":45442,"ELEMENT_SET_NO":999,"REV_AT_EPOCH":30556,"BSTAR":-0.0013322872,"MEAN_MOTION_DOT":-0.00000459,"MEAN_MOTION_DDOT":0},{"OBJECT_NAME":"ONEWEB-0055","OBJECT_ID":"2020-020V","EPOCH":"2026-07-09T18:10:50.979072","CLASSIFICATION_TYPE":"U","MEAN_MOTION":13.11414033,"ECCENTRICITY":0.00019748,"INCLINATION":87.8888,"RA_OF_ASC_NODE":16.5733,"ARG_OF_PERICENTER":94.1998,"MEAN_ANOMALY":265.9355,"EPHEMERIS_TYPE":0,"NORAD_CAT_ID":45443,"ELEMENT_SET_NO":999,"REV_AT_EPOCH":30557,"BSTAR":0.0004051071,"MEAN_MOTION_DOT":0.00000156,"MEAN_MOTION_DDOT":0},{"OBJECT_NAME":"ONEWEB-0093","OBJECT_ID":"2020-020W","EPOCH":"2026-07-09T12:19:12.112032","CLASSIFICATION_TYPE":"U","MEAN_MOTION":13.10891081,"ECCENTRICITY":0.0001554,"INCLINATION":87.8881,"RA_OF_ASC_NODE":16.6175,"ARG_OF_PERICENTER":84.1414,"MEAN_ANOMALY":275.9891,"EPHEMERIS_TYPE":0,"NORAD_CAT_ID":45444,"ELEMENT_SET_NO":999,"REV_AT_EPOCH":30560,"BSTAR":0.001599688,"MEAN_MOTION_DOT":0.00000575,"MEAN_MOTION_DDOT":0},{"OBJECT_NAME":"ONEWEB-0029","OBJECT_ID":"2020-020X","EPOCH":"2026-07-09T18:21:00.411840","CLASSIFICATION_TYPE":"U","MEAN_MOTION":13.11414496,"ECCENTRICITY":0.00015925,"INCLINATION":87.8879,"RA_OF_ASC_NODE":16.5728,"ARG_OF_PERICENTER":88.8258,"MEAN_ANOMALY":271.3053,"EPHEMERIS_TYPE":0,"NORAD_CAT_ID":45445,"ELEMENT_SET_NO":999,"REV_AT_EPOCH":30561,"BSTAR":-0.00087318682,"MEAN_MOTION_DOT":-0.00000297,"MEAN_MOTION_DDOT":0},{"OBJECT_NAME":"ONEWEB-0068","OBJECT_ID":"2020-020Y","EPOCH":"2026-07-10T06:30:38.325024","CLASSIFICATION_TYPE":"U","MEAN_MOTION":13.11416176,"ECCENTRICITY":0.00016462,"INCLINATION":87.8886,"RA_OF_ASC_NODE":16.4683,"ARG_OF_PERICENTER":89.0595,"MEAN_ANOMALY":271.0722,"EPHEMERIS_TYPE":0,"NORAD_CAT_ID":45446,"ELEMENT_SET_NO":999,"REV_AT_EPOCH":30562,"BSTAR":0.0013337563,"MEAN_MOTION_DOT":0.00000485,"MEAN_MOTION_DDOT":0},{"OBJECT_NAME":"ONEWEB-0046","OBJECT_ID":"2020-020Z","EPOCH":"2026-07-09T22:59:08.685888","CLASSIFICATION_TYPE":"U","MEAN_MOTION":13.11418207,"ECCENTRICITY":0.00017266,"INCLINATION":87.8879,"RA_OF_ASC_NODE":16.5348,"ARG_OF_PERICENTER":81.5158,"MEAN_ANOMALY":278.6165,"EPHEMERIS_TYPE":0,"NORAD_CAT_ID":45447,"ELEMENT_SET_NO":999,"REV_AT_EPOCH":30559,"BSTAR":0.0013333082,"MEAN_MOTION_DOT":0.00000485,"MEAN_MOTION_DDOT":0},{"OBJECT_NAME":"ONEWEB-0063","OBJECT_ID":"2020-020AA","EPOCH":"2026-07-09T18:11:14.593056","CLASSIFICATION_TYPE":"U","MEAN_MOTION":13.1141425,"ECCENTRICITY":0.0001989,"INCLINATION":87.8886,"RA_OF_ASC_NODE":16.5755,"ARG_OF_PERICENTER":82.8926,"MEAN_ANOMALY":277.2428,"EPHEMERIS_TYPE":0,"NORAD_CAT_ID":45448,"ELEMENT_SET_NO":999,"REV_AT_EPOCH":30565,"BSTAR":-0.00019128312,"MEAN_MOTION_DOT":-5.5e-7,"MEAN_MOTION_DDOT":0},{"OBJECT_NAME":"ONEWEB-0019","OBJECT_ID":"2020-020AB","EPOCH":"2026-07-09T11:47:29.997888","CLASSIFICATION_TYPE":"U","MEAN_MOTION":13.11411577,"ECCENTRICITY":0.00018517,"INCLINATION":87.888,"RA_OF_ASC_NODE":16.6138,"ARG_OF_PERICENTER":95.4433,"MEAN_ANOMALY":264.6906,"EPHEMERIS_TYPE":0,"NORAD_CAT_ID":45449,"ELEMENT_SET_NO":999,"REV_AT_EPOCH":30546,"BSTAR":-0.00059996691,"MEAN_MOTION_DOT":-0.000002,"MEAN_MOTION_DDOT":0}]}
