ONEWEB-0018             
1 45434U 20020L   26190.49642647  .00000377  00000+0  10291-2 0  9995
2 45434  87.8881  16.6239 0001545  98.6033 261.5270 13.11417540305551
ONEWEB-0083             
1 45435U 20020M   26190.48653161 -.00000026  00000+0 -10819-3 0  9998
2 45435  87.8888  16.6206 0001849  91.8186 268.3154 13.11418856305595
ONEWEB-0095             
1 45436U 20020N   26190.47804503 -.00000319  00000+0 -93630-3 0  9993
2 45436  87.8887  16.6310 0002448  79.9808 280.1596 13.11417493305593
ONEWEB-0092             
1 45437U 20020P   26191.27154502  .00000528  00000+0  14546-2 0  9998
2 45437  87.8885  16.4643 0001681  94.2237 265.9083 13.11414455305815
ONEWEB-0085             
1 45438U 20020Q   26190.48625507 -.00000037  00000+0 -13977-3 0  9994
2 45438  87.8880  16.6262 0001849  89.6746 270.4594 13.11418366305597
ONEWEB-0096             
1 45439U 20020R   26190.48808417  .00000039  00000+0  74647-4 0  9990
2 45439  87.8888  16.6228 0001971  88.3212 271.8141 13.11418171305584
ONEWEB-0037             
1 45440U 20020S   26191.27732354 -.00000668  00000+0 -19205-2 0  9993
2 45440  87.8897  16.4385 0001898  88.9347 271.1998 13.11423434305728
ONEWEB-0042             
1 45441U 20020T   26190.47777547 -.00000377  00000+0 -10997-2 0  9994
2 45441  87.8883  16.6216 0001758  87.0975 273.0354 13.11417617305588
ONEWEB-0098             
1 45442U 20020U   26190.47365925 -.00000459  00000+0 -13323-2 0  9995
2 45442  87.8882  16.6311 0001845  91.8801 268.2539 13.11415694305564
ONEWEB-0055             
1 45443U 20020V   26190.75753448  .00000156  00000+0  40511-3 0  9990
2 45443  87.8888  16.5733 0001974  94.1998 265.9355 13.11414033305571
ONEWEB-0093             
1 45444U 20020W   26190.51333463  .00000575  00000+0  15997-2 0  9990
2 45444  87.8881  16.6175 0001554  84.1414 275.9891 13.10891081305603
ONEWEB-0029             
1 45445U 20020X   26190.76458810 -.00000297  00000+0 -87319-3 0  9993
2 45445  87.8879  16.5728 0001592  88.8258 271.3053 13.11414496305616
ONEWEB-0068             
1 45446U 20020Y   26191.27127691  .00000485  00000+0  13338-2 0  9997
2 45446  87.8886  16.4683 0001646  89.0595 271.0722 13.11416176305629
ONEWEB-0046             
1 45447U 20020Z   26190.95773942  .00000485  00000+0  13333-2 0  9993
2 45447  87.8879  16.5348 0001726  81.5158 278.6165 13.11418207305599
ONEWEB-0063             
1 45448U 20020AA  26190.75780779 -.00000055  00000+0 -19128-3 0  9992
2 45448  87.8886  16.5755 0001989  82.8926 277.2428 13.11414250305656
ONEWEB-0019             
1 45449U 20020AB  26190.49131942 -.00000200  00000+0 -59997-3 0  9996
2 45449  87.8880  16.6138 0001851  95.4433 264.6906 13.11411577305467
